<?xml version="1.0" encoding="UTF-8"?>
<kml>
  <Document>
    <Placemark>
      <name>大青山林区森林防火1号监控点</name>
      <visibility>1</visibility>
     
      <Point>
        <altitudeMode>clampToGround</altitudeMode>
        <coordinates>
          120.2809944444,37.0786194444,0
        </coordinates>
      </Point>
    </Placemark>
    <Placemark>
      <name>大青山林区森林防火2号监控点</name>
      <visibility>1</visibility>
     
      <Point>
        <altitudeMode>clampToGround</altitudeMode>
        <coordinates>
          120.2844694444,37.095275,0
        </coordinates>
      </Point>
    </Placemark>
    <Placemark>
      <name>午山社区午山监控点</name>
      <visibility>1</visibility>
     
      <Point>
        <altitudeMode>clampToGround</altitudeMode>
        <coordinates>
          120.495065406676,36.1173133934031,0
        </coordinates>
      </Point>
    </Placemark>
    <Placemark>
      <name>沙子口社区小崂山监控点</name>
      <visibility>1</visibility>
     
      <Point>
        <altitudeMode>clampToGround</altitudeMode>
        <coordinates>
          120.5238389969,36.1153781659,0
        </coordinates>
      </Point>
    </Placemark>
    <Placemark>
      <name>森林防火指挥部监控点</name>
      <visibility>1</visibility>
     
      <Point>
        <altitudeMode>clampToGround</altitudeMode>
        <coordinates>
          120.5427002894,36.1031132702,0
        </coordinates>
      </Point>
    </Placemark>
    <Placemark>
      <name>段家埠社区烟台山监控点</name>
      <visibility>1</visibility>
     
      <Point>
        <altitudeMode>clampToGround</altitudeMode>
        <coordinates>
          120.5619907379,36.1198155926,0
        </coordinates>
      </Point>
    </Placemark>
    <Placemark>
      <name>崂顶部队观通站监控点</name>
      <visibility>1</visibility>
     
      <Point>
        <altitudeMode>clampToGround</altitudeMode>
        <coordinates>
          120.627264,36.175294,0
        </coordinates>
      </Point>
    </Placemark>
    <Placemark>
      <name>慕武石社区青峰顶监控点</name>
      <visibility>1</visibility>
     
      <Point>
        <altitudeMode>clampToGround</altitudeMode>
        <coordinates>
          120.566999946847,36.2096298096921,0
        </coordinates>
      </Point>
    </Placemark>
    <Placemark>
      <name>大石村社区监控点</name>
      <visibility>1</visibility>
     
      <Point>
        <altitudeMode>clampToGround</altitudeMode>
        <coordinates>
          120.5497598646,36.1907803072,0
        </coordinates>
      </Point>
    </Placemark>
    <Placemark>
      <name>七峪社区石门山监控点</name>
      <visibility>1</visibility>
     
      <Point>
        <altitudeMode>clampToGround</altitudeMode>
        <coordinates>
          120.50246078801,36.2169930731261,0
        </coordinates>
      </Point>
    </Placemark>
    <Placemark>
      <name>南北岭社区鳖石监控点</name>
      <visibility>1</visibility>
     
      <Point>
        <altitudeMode>clampToGround</altitudeMode>
        <coordinates>
          120.568672772824,36.2615382827525,0
        </coordinates>
      </Point>
    </Placemark>
    <Placemark>
      <name>高家社区朱顶山监控点</name>
      <visibility>1</visibility>
     
      <Point>
        <altitudeMode>clampToGround</altitudeMode>
        <coordinates>
          120.6245398469,36.2842391085,0
        </coordinates>
      </Point>
    </Placemark>
    <Placemark>
      <name>峰山西社区峰山监控点</name>
      <visibility>1</visibility>
     
      <Point>
        <altitudeMode>clampToGround</altitudeMode>
        <coordinates>
          120.6761884637,36.2502780273,0
        </coordinates>
      </Point>
    </Placemark>
    <Placemark>
      <name>秦家土寨监控点</name>
      <visibility>1</visibility>
     
      <Point>
        <altitudeMode>clampToGround</altitudeMode>
        <coordinates>
          120.6246900506,36.3239944039,0
        </coordinates>
      </Point>
    </Placemark>
    <Placemark>
      <name>森林防火1号监控点</name>
      <visibility>1</visibility>
     
      <Point>
        <altitudeMode>clampToGround</altitudeMode>
        <coordinates>
          120.375277777777,36.4061111111111,0
        </coordinates>
      </Point>
    </Placemark>
    <Placemark>
      <name>森林防火2号监控点</name>
      <visibility>1</visibility>
     
      <Point>
        <altitudeMode>clampToGround</altitudeMode>
        <coordinates>
          120.614421888153,36.3521192862391,0
        </coordinates>
      </Point>
    </Placemark>
    <Placemark>
      <name>森林防火3号监控点</name>
      <visibility>1</visibility>
     
      <Point>
        <altitudeMode>clampToGround</altitudeMode>
        <coordinates>
          120.724253565583,36.4958070009931,0
        </coordinates>
      </Point>
    </Placemark>
    <Placemark>
      <name>森林防火4号监控点</name>
      <visibility>1</visibility>
     
      <Point>
        <altitudeMode>clampToGround</altitudeMode>
        <coordinates>
          120.896111111111,36.4233333333333,0
        </coordinates>
      </Point>
    </Placemark>
    <Placemark>
      <name>森林防火5号监控点</name>
      <visibility>1</visibility>
     
      <Point>
        <altitudeMode>clampToGround</altitudeMode>
        <coordinates>
          120.882846029719,36.5160117929087,0
        </coordinates>
      </Point>
    </Placemark>
    <Placemark>
      <name>刘王大庄护林防火视频监控（1）</name>
      <visibility>1</visibility>
     
      <Point>
        <altitudeMode>clampToGround</altitudeMode>
        <coordinates>
          120.134722222222,36.0325,0
        </coordinates>
      </Point>
    </Placemark>
    <Placemark>
      <name>冷家沟护林防火视频监控</name>
      <visibility>1</visibility>
     
      <Point>
        <altitudeMode>clampToGround</altitudeMode>
        <coordinates>
          120.11,36.0316666666667,0
        </coordinates>
      </Point>
    </Placemark>
    <Placemark>
      <name>东洞门护林防火视频监控</name>
      <visibility>1</visibility>
     
      <Point>
        <altitudeMode>clampToGround</altitudeMode>
        <coordinates>
          120.106388888889,36.0038888888889,0
        </coordinates>
      </Point>
    </Placemark>
    <Placemark>
      <name>致远中学护林防火视频监控</name>
      <visibility>1</visibility>
     
      <Point>
        <altitudeMode>clampToGround</altitudeMode>
        <coordinates>
          120.103333333333,35.9916666666667,0
        </coordinates>
      </Point>
    </Placemark>
    <Placemark>
      <name>上庄护林防火视频监控</name>
      <visibility>1</visibility>
     
      <Point>
        <altitudeMode>clampToGround</altitudeMode>
        <coordinates>
          120.106666666667,35.9883333333333,0
        </coordinates>
      </Point>
    </Placemark>
    <Placemark>
      <name>南下庄护林防火视频监控</name>
      <visibility>1</visibility>
     
      <Point>
        <altitudeMode>clampToGround</altitudeMode>
        <coordinates>
          120.118888888889,35.9894444444444,0
        </coordinates>
      </Point>
    </Placemark>
    <Placemark>
      <name>森林防火监控</name>
      <visibility>1</visibility>
     
      <Point>
        <altitudeMode>clampToGround</altitudeMode>
        <coordinates>
          120.138055555556,35.9825,0
        </coordinates>
      </Point>
    </Placemark>
    <Placemark>
      <name>森林防火监控点</name>
      <visibility>1</visibility>
     
      <Point>
        <altitudeMode>clampToGround</altitudeMode>
        <coordinates>
          120.144444444444,35.9761111111111,0
        </coordinates>
      </Point>
    </Placemark>
    <Placemark>
      <name>森林防火监控点</name>
      <visibility>1</visibility>
     
      <Point>
        <altitudeMode>clampToGround</altitudeMode>
        <coordinates>
          120.135277777778,35.9633333333333,0
        </coordinates>
      </Point>
    </Placemark>
    <Placemark>
      <name>森林防火监控点</name>
      <visibility>1</visibility>
     
      <Point>
        <altitudeMode>clampToGround</altitudeMode>
        <coordinates>
          120.143333333333,35.9569444444444,0
        </coordinates>
      </Point>
    </Placemark>
    <Placemark>
      <name>森林防火监控点</name>
      <visibility>1</visibility>
     
      <Point>
        <altitudeMode>clampToGround</altitudeMode>
        <coordinates>
          120.144722222222,35.9561111111111,0
        </coordinates>
      </Point>
    </Placemark>
    <Placemark>
      <name>森林防火监控点</name>
      <visibility>1</visibility>
     
      <Point>
        <altitudeMode>clampToGround</altitudeMode>
        <coordinates>
          120.131388888889,35.9561111111111,0
        </coordinates>
      </Point>
    </Placemark>
    <Placemark>
      <name>森林防火监控点</name>
      <visibility>1</visibility>
     
      <Point>
        <altitudeMode>clampToGround</altitudeMode>
        <coordinates>
          120.135833333333,35.9511111111111,0
        </coordinates>
      </Point>
    </Placemark>
    <Placemark>
      <name>森林防火监控点</name>
      <visibility>1</visibility>
     
      <Point>
        <altitudeMode>clampToGround</altitudeMode>
        <coordinates>
          120.161388888889,35.9394444444444,0
        </coordinates>
      </Point>
    </Placemark>
    <Placemark>
      <name>森林防火监控点</name>
      <visibility>1</visibility>
     
      <Point>
        <altitudeMode>clampToGround</altitudeMode>
        <coordinates>
          120.193333333333,35.9725,0
        </coordinates>
      </Point>
    </Placemark>
    <Placemark>
      <name>森林防火监控点</name>
      <visibility>1</visibility>
     
      <Point>
        <altitudeMode>clampToGround</altitudeMode>
        <coordinates>
          120.175555555556,35.9516666666667,0
        </coordinates>
      </Point>
    </Placemark>
    <Placemark>
      <name>演礼山监控塔</name>
      <visibility>1</visibility>
     
      <Point>
        <altitudeMode>clampToGround</altitudeMode>
        <coordinates>
          120.534795883974,36.3174046186451,0
        </coordinates>
      </Point>
    </Placemark>
    <Placemark>
      <name>棉花东水长监控</name>
      <visibility>1</visibility>
     
      <Point>
        <altitudeMode>clampToGround</altitudeMode>
        <coordinates>
          120.5650645494,36.2822564332,0
        </coordinates>
      </Point>
    </Placemark>
    <Placemark>
      <name>老母庙停车场监控</name>
      <visibility>1</visibility>
     
      <Point>
        <altitudeMode>clampToGround</altitudeMode>
        <coordinates>
          120.536589135491,36.2885855669335,0
        </coordinates>
      </Point>
    </Placemark>
    <Placemark>
      <name>金钱鼎监控台</name>
      <visibility>1</visibility>
     
      <Point>
        <altitudeMode>clampToGround</altitudeMode>
        <coordinates>
          120.51772671623,36.3014889540214,0
        </coordinates>
      </Point>
    </Placemark>
    <Placemark>
      <name>科埠监控点</name>
      <visibility>1</visibility>
     
      <Point>
        <altitudeMode>clampToGround</altitudeMode>
        <coordinates>
          120.512123195188,36.2975602633799,0
        </coordinates>
      </Point>
    </Placemark>
    <Placemark>
      <name>毛公山进山口监控</name>
      <visibility>1</visibility>
     
      <Point>
        <altitudeMode>clampToGround</altitudeMode>
        <coordinates>
          120.491605818355,36.2708549463193,0
        </coordinates>
      </Point>
    </Placemark>
    <Placemark>
      <name>山色峪村口监控</name>
      <visibility>1</visibility>
     
      <Point>
        <altitudeMode>clampToGround</altitudeMode>
        <coordinates>
          120.5116832256,36.25874373,0
        </coordinates>
      </Point>
    </Placemark>
    <Placemark>
      <name>山色峪停车场监控</name>
      <visibility>1</visibility>
     
      <Point>
        <altitudeMode>clampToGround</altitudeMode>
        <coordinates>
          120.518620917042,36.263791911251,0
        </coordinates>
      </Point>
    </Placemark>
    <Placemark>
      <name>小旱坝检查站监控</name>
      <visibility>1</visibility>
     
      <Point>
        <altitudeMode>clampToGround</altitudeMode>
        <coordinates>
          120.467519811049,36.2550906011888,0
        </coordinates>
      </Point>
    </Placemark>
    <Placemark>
      <name>太和社区进山监控</name>
      <visibility>1</visibility>
     
      <Point>
        <altitudeMode>clampToGround</altitudeMode>
        <coordinates>
          120.451902928968,36.2220673711711,0
        </coordinates>
      </Point>
    </Placemark>
    <Placemark>
      <name>南屋石护林房监控</name>
      <visibility>1</visibility>
     
      <Point>
        <altitudeMode>clampToGround</altitudeMode>
        <coordinates>
          120.452915145974,36.2105593936276,0
        </coordinates>
      </Point>
    </Placemark>
    <Placemark>
      <name>丹山岭监控</name>
      <visibility>1</visibility>
     
      <Point>
        <altitudeMode>clampToGround</altitudeMode>
        <coordinates>
          120.42753223686,36.224742110732,0
        </coordinates>
      </Point>
    </Placemark>
    <Placemark>
      <name>619监控点</name>
      <visibility>1</visibility>
     
      <Point>
        <altitudeMode>clampToGround</altitudeMode>
        <coordinates>
          120.014116196652,36.9471266066968,0
        </coordinates>
      </Point>
    </Placemark>
    <Placemark>
      <name>三山东头监控点</name>
      <visibility>1</visibility>
     
      <Point>
        <altitudeMode>clampToGround</altitudeMode>
        <coordinates>
          119.957934196652,36.9648016066968,0
        </coordinates>
      </Point>
    </Placemark>
    <Placemark>
      <name>森林防火1号监控点</name>
      <visibility>1</visibility>
     
      <Point>
        <altitudeMode>clampToGround</altitudeMode>
        <coordinates>
          119.9210162682,36.1105425933,0
        </coordinates>
      </Point>
    </Placemark>
    <Placemark>
      <name>森林防火2号监控点</name>
      <visibility>1</visibility>
     
      <Point>
        <altitudeMode>clampToGround</altitudeMode>
        <coordinates>
          119.9461123627,36.1035743956,0
        </coordinates>
      </Point>
    </Placemark>
    <Placemark>
      <name>积米崖港区防火监控</name>
      <visibility>1</visibility>
     
      <Point>
        <altitudeMode>clampToGround</altitudeMode>
        <coordinates>
          120.1575,35.7638888888889,0
        </coordinates>
      </Point>
    </Placemark>
    <Placemark>
      <name>双杆瞭望塔</name>
      <visibility>1</visibility>
     
      <Point>
        <altitudeMode>clampToGround</altitudeMode>
        <coordinates>
          120.046072327552,36.9835140977968,0
        </coordinates>
      </Point>
    </Placemark>
    <Placemark>
      <name>日观峰瞭望塔</name>
      <visibility>1</visibility>
     
      <Point>
        <altitudeMode>clampToGround</altitudeMode>
        <coordinates>
          120.024791681152,36.9962442478968,0
        </coordinates>
      </Point>
    </Placemark>
    <Placemark>
      <name>森林防火1号监控点</name>
      <visibility>1</visibility>
     
      <Point>
        <altitudeMode>clampToGround</altitudeMode>
        <coordinates>
          120.0146273147,35.9348396189,0
        </coordinates>
      </Point>
    </Placemark>
    <Placemark>
      <name>森林防火2号监控点</name>
      <visibility>1</visibility>
     
      <Point>
        <altitudeMode>clampToGround</altitudeMode>
        <coordinates>
          120.0102279944,35.9531144488,0
        </coordinates>
      </Point>
    </Placemark>
    <Placemark>
      <name>森林防火3号监控点</name>
      <visibility>1</visibility>
     
      <Point>
        <altitudeMode>clampToGround</altitudeMode>
        <coordinates>
          119.9774164504,35.933797464,0
        </coordinates>
      </Point>
    </Placemark>
    <Placemark>
      <name>森林防火4号监控点</name>
      <visibility>1</visibility>
     
      <Point>
        <altitudeMode>clampToGround</altitudeMode>
        <coordinates>
          119.9968871484,35.9637398243,0
        </coordinates>
      </Point>
    </Placemark>
    <Placemark>
      <name>森林防火5号监控点</name>
      <visibility>1</visibility>
     
      <Point>
        <altitudeMode>clampToGround</altitudeMode>
        <coordinates>
          119.9874978257,35.9148006677,0
        </coordinates>
      </Point>
    </Placemark>
    <Placemark>
      <name>韩家寨视频监控点</name>
      <visibility>1</visibility>
     
      <Point>
        <altitudeMode>clampToGround</altitudeMode>
        <coordinates>
          120.042777777778,36.0427777777778,0
        </coordinates>
      </Point>
    </Placemark>
    <Placemark>
      <name>沙沟视频监控点</name>
      <visibility>1</visibility>
     
      <Point>
        <altitudeMode>clampToGround</altitudeMode>
        <coordinates>
          120.001666666667,36.0455555555556,0
        </coordinates>
      </Point>
    </Placemark>
    <Placemark>
      <name>山赵视频监控点</name>
      <visibility>1</visibility>
     
      <Point>
        <altitudeMode>clampToGround</altitudeMode>
        <coordinates>
          120.001666666667,35.9869444444444,0
        </coordinates>
      </Point>
    </Placemark>
    <Placemark>
      <name>南小庄监控点</name>
      <visibility>1</visibility>
     
      <Point>
        <altitudeMode>clampToGround</altitudeMode>
        <coordinates>
          120.02,35.7605555555556,0
        </coordinates>
      </Point>
    </Placemark>
    <Placemark>
      <name>台子沟监控点</name>
      <visibility>1</visibility>
     
      <Point>
        <altitudeMode>clampToGround</altitudeMode>
        <coordinates>
          120.006944444444,35.8005555555556,0
        </coordinates>
      </Point>
    </Placemark>
    <Placemark>
      <name>山王水库监控点</name>
      <visibility>1</visibility>
     
      <Point>
        <altitudeMode>clampToGround</altitudeMode>
        <coordinates>
          119.980555555556,35.8036111111111,0
        </coordinates>
      </Point>
    </Placemark>
    <Placemark>
      <name>钢柱厂后监控点</name>
      <visibility>1</visibility>
     
      <Point>
        <altitudeMode>clampToGround</altitudeMode>
        <coordinates>
          119.9675,35.83,0
        </coordinates>
      </Point>
    </Placemark>
    <Placemark>
      <name>杻杭平塘监控点</name>
      <visibility>1</visibility>
     
      <Point>
        <altitudeMode>clampToGround</altitudeMode>
        <coordinates>
          119.937222222222,35.7938888888889,0
        </coordinates>
      </Point>
    </Placemark>
    <Placemark>
      <name>东营村后监控点</name>
      <visibility>1</visibility>
     
      <Point>
        <altitudeMode>clampToGround</altitudeMode>
        <coordinates>
          119.933055555556,35.7769444444444,0
        </coordinates>
      </Point>
    </Placemark>
    <Placemark>
      <name>森林防火1号监控点</name>
      <visibility>1</visibility>
     
      <Point>
        <altitudeMode>clampToGround</altitudeMode>
        <coordinates>
          119.795628,35.755267,0
        </coordinates>
      </Point>
    </Placemark>
    <Placemark>
      <name>森林防火2号监控点</name>
      <visibility>1</visibility>
     
      <Point>
        <altitudeMode>clampToGround</altitudeMode>
        <coordinates>
          119.765209,35.749346,0
        </coordinates>
      </Point>
    </Placemark>
    <Placemark>
      <name>森林防火1号监控点</name>
      <visibility>1</visibility>
     
      <Point>
        <altitudeMode>clampToGround</altitudeMode>
        <coordinates>
          119.89,35.8958333333333,0
        </coordinates>
      </Point>
    </Placemark>
    <Placemark>
      <name>森林防火2号监控点</name>
      <visibility>1</visibility>
     
      <Point>
        <altitudeMode>clampToGround</altitudeMode>
        <coordinates>
          119.8775,35.8877777777778,0
        </coordinates>
      </Point>
    </Placemark>
    <Placemark>
      <name>森林防火1号监控点</name>
      <visibility>1</visibility>
     
      <Point>
        <altitudeMode>clampToGround</altitudeMode>
        <coordinates>
          120.113888888889,35.9677777777778,0
        </coordinates>
      </Point>
    </Placemark>
    <Placemark>
      <name>森林防火2号监控点</name>
      <visibility>1</visibility>
     
      <Point>
        <altitudeMode>clampToGround</altitudeMode>
        <coordinates>
          120.118055555556,35.9761111111111,0
        </coordinates>
      </Point>
    </Placemark>
    <Placemark>
      <name>文山森林防火监控点</name>
      <visibility>1</visibility>
     
      <Point>
        <altitudeMode>clampToGround</altitudeMode>
        <coordinates>
          120.18,35.9008333333333,0
        </coordinates>
      </Point>
    </Placemark>
    <Placemark>
      <name>鱼鸣嘴森林防火监控点</name>
      <visibility>1</visibility>
     
      <Point>
        <altitudeMode>clampToGround</altitudeMode>
        <coordinates>
          120.173888888889,35.8938888888889,0
        </coordinates>
      </Point>
    </Placemark>
    <Placemark>
      <name>吉山森林防火监控点</name>
      <visibility>1</visibility>
     
      <Point>
        <altitudeMode>clampToGround</altitudeMode>
        <coordinates>
          120.193611111111,35.9180555555556,0
        </coordinates>
      </Point>
    </Placemark>
    <Placemark>
      <name>北屯道观山森林防火监控点</name>
      <visibility>1</visibility>
     
      <Point>
        <altitudeMode>clampToGround</altitudeMode>
        <coordinates>
          120.265555555556,35.9761111111111,0
        </coordinates>
      </Point>
    </Placemark>
    <Placemark>
      <name>凤凰山酒店森林防火监控点</name>
      <visibility>1</visibility>
     
      <Point>
        <altitudeMode>clampToGround</altitudeMode>
        <coordinates>
          120.272222222222,35.97,0
        </coordinates>
      </Point>
    </Placemark>
    <Placemark>
      <name>凤凰山南森林防火监控点</name>
      <visibility>1</visibility>
     
      <Point>
        <altitudeMode>clampToGround</altitudeMode>
        <coordinates>
          120.288333333333,35.9719444444444,0
        </coordinates>
      </Point>
    </Placemark>
    <Placemark>
      <name>涵碧楼东森林防火监控点</name>
      <visibility>1</visibility>
     
      <Point>
        <altitudeMode>clampToGround</altitudeMode>
        <coordinates>
          120.295555555556,35.9797222222222,0
        </coordinates>
      </Point>
    </Placemark>
    <Placemark>
      <name>赵坡地森林防火监控点</name>
      <visibility>1</visibility>
     
      <Point>
        <altitudeMode>clampToGround</altitudeMode>
        <coordinates>
          120.298611111111,35.9911111111111,0
        </coordinates>
      </Point>
    </Placemark>
    <Placemark>
      <name>左皮嘴森林防火监控点</name>
      <visibility>1</visibility>
     
      <Point>
        <altitudeMode>clampToGround</altitudeMode>
        <coordinates>
          120.306666666667,36.0036111111111,0
        </coordinates>
      </Point>
    </Placemark>
    <Placemark>
      <name>甘水湾森林防火监控点</name>
      <visibility>1</visibility>
     
      <Point>
        <altitudeMode>clampToGround</altitudeMode>
        <coordinates>
          120.293888888889,36.0080555555556,0
        </coordinates>
      </Point>
    </Placemark>
    <Placemark>
      <name>后岔湾东森林防火监控点</name>
      <visibility>1</visibility>
     
      <Point>
        <altitudeMode>clampToGround</altitudeMode>
        <coordinates>
          120.2875,36.0080555555556,0
        </coordinates>
      </Point>
    </Placemark>
    <Placemark>
      <name>山里社区森林防火监控点</name>
      <visibility>1</visibility>
     
      <Point>
        <altitudeMode>clampToGround</altitudeMode>
        <coordinates>
          120.288055555556,35.9788888888889,0
        </coordinates>
      </Point>
    </Placemark>
    <Placemark>
      <name>安子社区森林防火监控点</name>
      <visibility>1</visibility>
     
      <Point>
        <altitudeMode>clampToGround</altitudeMode>
        <coordinates>
          120.228888888889,35.9752777777778,0
        </coordinates>
      </Point>
    </Placemark>
    <Placemark>
      <name>向阳公墓森林防火监控点</name>
      <visibility>1</visibility>
     
      <Point>
        <altitudeMode>clampToGround</altitudeMode>
        <coordinates>
          120.235,35.9961111111111,0
        </coordinates>
      </Point>
    </Placemark>
    <Placemark>
      <name>西山社区森林防火监控点</name>
      <visibility>1</visibility>
     
      <Point>
        <altitudeMode>clampToGround</altitudeMode>
        <coordinates>
          120.201944444444,35.9830555555556,0
        </coordinates>
      </Point>
    </Placemark>
    <Placemark>
      <name>大涧山森林防火监控点</name>
      <visibility>1</visibility>
     
      <Point>
        <altitudeMode>clampToGround</altitudeMode>
        <coordinates>
          120.219166666667,35.9819444444444,0
        </coordinates>
      </Point>
    </Placemark>
    <Placemark>
      <name>里岔镇森林防火1号监控点</name>
      <visibility>1</visibility>
     
      <Point>
        <altitudeMode>clampToGround</altitudeMode>
        <coordinates>
          119.8701739311,36.0845519321,0
        </coordinates>
      </Point>
    </Placemark>
    <Placemark>
      <visibility>1</visibility>
     
      <Point>
        <altitudeMode>clampToGround</altitudeMode>
        <coordinates>
          120.622500105048,36.17240482202,0
        </coordinates>
      </Point>
    </Placemark>
  </Document>
</kml>

